start=new Date('2022-09-20T00:00:00.000Z').valueOf();
sats=[{"FILE":"3577889","INCLINATION":"53.2170","NORAD_CAT_ID":"50187","APOAPSIS":"541.226","RCS_SIZE":"LARGE","OBJECT_NAME":"STARLINK-3272","ELEMENT_SET_NO":"999","BSTAR":"0.00009934400000","COUNTRY_CODE":"US","MEAN_MOTION":"15.08845250","PERIOD":"95.437","CLASSIFICATION_TYPE":"U","MEAN_ELEMENT_THEORY":"SGP4","DECAY_DATE":null,"REV_AT_EPOCH":"4536","MEAN_MOTION_DOT":"0.00001293","OBJECT_ID":"2021-125AH","ECCENTRICITY":"0.00021640","ARG_OF_PERICENTER":"54.1031","RA_OF_ASC_NODE":"169.3464","OBJECT_TYPE":"PAYLOAD","SITE":"AFWTR","TIME_SYSTEM":"UTC","SEMIMAJOR_AXIS":"6917.864","TLE_LINE2":"2 50187  53.2170 169.3464 0002164  54.1031 306.0162 15.08845250 45365","MEAN_ANOMALY":"306.0162","REF_FRAME":"TEME","MEAN_MOTION_DDOT":"0.0000000000000","EPOCH":"2022-09-19T03:28:18.987744","CENTER_NAME":"EARTH","PERIAPSIS":"538.232","LAUNCH_DATE":"2021-12-18","GP_ID":"213003279","EPHEMERIS_TYPE":"0","TLE_LINE1":"1 50187U 21125AH  22262.14466421  .00001293  00000-0  99344-4 0  9992"},{"ECCENTRICITY":"0.00013990","ARG_OF_PERICENTER":"62.2569","OBJECT_TYPE":"PAYLOAD","RA_OF_ASC_NODE":"166.6464","SITE":"AFWTR","TIME_SYSTEM":"UTC","MEAN_ANOMALY":"297.8565","TLE_LINE2":"2 50188  53.2171 166.6464 0001399  62.2569 297.8565 15.08839085 45512","SEMIMAJOR_AXIS":"6917.883","REF_FRAME":"TEME","MEAN_MOTION_DDOT":"0.0000000000000","EPOCH":"2022-09-19T17:52:05.142144","CENTER_NAME":"EARTH","PERIAPSIS":"538.780","GP_ID":"213033544","LAUNCH_DATE":"2021-12-18","EPHEMERIS_TYPE":"0","TLE_LINE1":"1 50188U 21125AJ  22262.74450396  .00001871  00000-0  13563-3 0  9993","FILE":"3578162","INCLINATION":"53.2171","NORAD_CAT_ID":"50188","APOAPSIS":"540.716","RCS_SIZE":"LARGE","ELEMENT_SET_NO":"999","OBJECT_NAME":"STARLINK-3275","BSTAR":"0.00013563000000","COUNTRY_CODE":"US","MEAN_MOTION":"15.08839085","PERIOD":"95.438","CLASSIFICATION_TYPE":"U","MEAN_ELEMENT_THEORY":"SGP4","DECAY_DATE":null,"REV_AT_EPOCH":"4551","MEAN_MOTION_DOT":"0.00001871","OBJECT_ID":"2021-125AJ"},{"CLASSIFICATION_TYPE":"U","MEAN_ELEMENT_THEORY":"SGP4","MEAN_MOTION":"15.08838206","PERIOD":"95.438","REV_AT_EPOCH":"4481","DECAY_DATE":null,"MEAN_MOTION_DOT":"0.00001771","OBJECT_ID":"2021-125AK","FILE":"3577867","INCLINATION":"53.2178","NORAD_CAT_ID":"50189","APOAPSIS":"541.001","RCS_SIZE":"LARGE","ELEMENT_SET_NO":"999","OBJECT_NAME":"STARLINK-3276","COUNTRY_CODE":"US","BSTAR":"0.00012934000000","EPOCH":"2022-09-19T11:34:31.223712","PERIAPSIS":"538.501","LAUNCH_DATE":"2021-12-18","GP_ID":"212978382","CENTER_NAME":"EARTH","EPHEMERIS_TYPE":"0","TLE_LINE1":"1 50189U 21125AK  22262.48230583  .00001771  00000-0  12934-3 0  9999","OBJECT_TYPE":"PAYLOAD","RA_OF_ASC_NODE":"177.8396","ARG_OF_PERICENTER":"53.8360","ECCENTRICITY":"0.00018070","SEMIMAJOR_AXIS":"6917.886","TLE_LINE2":"2 50189  53.2178 177.8396 0001807  53.8360 306.2799 15.08838206 44817","MEAN_ANOMALY":"306.2799","REF_FRAME":"TEME","SITE":"AFWTR","TIME_SYSTEM":"UTC","MEAN_MOTION_DDOT":"0.0000000000000"},{"EPOCH":"2022-09-19T03:12:24.593472","GP_ID":"213002528","LAUNCH_DATE":"2021-12-18","PERIAPSIS":"538.412","CENTER_NAME":"EARTH","EPHEMERIS_TYPE":"0","TLE_LINE1":"1 50190U 21125AL  22262.13361798  .00001109  00000-0  87754-4 0  9994","RA_OF_ASC_NODE":"169.4036","OBJECT_TYPE":"PAYLOAD","ECCENTRICITY":"0.00019240","ARG_OF_PERICENTER":"47.9391","REF_FRAME":"TEME","SEMIMAJOR_AXIS":"6917.878","TLE_LINE2":"2 50190  53.2186 169.4036 0001924  47.9391 312.1765 15.08840801 45379","MEAN_ANOMALY":"312.1765","TIME_SYSTEM":"UTC","SITE":"AFWTR","MEAN_MOTION_DDOT":"0.0000000000000","CLASSIFICATION_TYPE":"U","MEAN_ELEMENT_THEORY":"SGP4","PERIOD":"95.438","MEAN_MOTION":"15.08840801","REV_AT_EPOCH":"4537","DECAY_DATE":null,"MEAN_MOTION_DOT":"0.00001109","OBJECT_ID":"2021-125AL","INCLINATION":"53.2186","FILE":"3577889","APOAPSIS":"541.074","NORAD_CAT_ID":"50190","RCS_SIZE":"LARGE","OBJECT_NAME":"STARLINK-3268","ELEMENT_SET_NO":"999","COUNTRY_CODE":"US","BSTAR":"0.00008775400000"},{"MEAN_MOTION_DDOT":"0.0000000000000","RA_OF_ASC_NODE":"186.3804","OBJECT_TYPE":"PAYLOAD","ARG_OF_PERICENTER":"54.8896","ECCENTRICITY":"0.00017130","TLE_LINE2":"2 50191  53.2143 186.3804 0001713  54.8896 305.2256 15.08845640 45191","SEMIMAJOR_AXIS":"6917.863","MEAN_ANOMALY":"305.2256","REF_FRAME":"TEME","SITE":"AFWTR","TIME_SYSTEM":"UTC","EPHEMERIS_TYPE":"0","TLE_LINE1":"1 50191U 21125AM  22262.80522677  .00001844  00000-0  13393-3 0  9997","EPOCH":"2022-09-19T19:19:31.592928","PERIAPSIS":"538.543","GP_ID":"213033294","LAUNCH_DATE":"2021-12-18","CENTER_NAME":"EARTH","RCS_SIZE":"LARGE","OBJECT_NAME":"STARLINK-3273","ELEMENT_SET_NO":"999","COUNTRY_CODE":"US","BSTAR":"0.00013393000000","FILE":"3578162","INCLINATION":"53.2143","NORAD_CAT_ID":"50191","APOAPSIS":"540.913","MEAN_MOTION_DOT":"0.00001844","OBJECT_ID":"2021-125AM","MEAN_ELEMENT_THEORY":"SGP4","CLASSIFICATION_TYPE":"U","MEAN_MOTION":"15.08845640","PERIOD":"95.437","REV_AT_EPOCH":"4519","DECAY_DATE":null},{"MEAN_ELEMENT_THEORY":"SGP4","CLASSIFICATION_TYPE":"U","MEAN_MOTION":"15.08846103","PERIOD":"95.437","REV_AT_EPOCH":"4537","DECAY_DATE":null,"MEAN_MOTION_DOT":"0.00002124","OBJECT_ID":"2021-125AN","FILE":"3577889","INCLINATION":"53.2177","NORAD_CAT_ID":"50192","APOAPSIS":"541.043","RCS_SIZE":"LARGE","OBJECT_NAME":"STARLINK-3259","ELEMENT_SET_NO":"999","COUNTRY_CODE":"US","BSTAR":"0.00015150000000","EPOCH":"2022-09-19T03:07:06.687264","PERIAPSIS":"538.410","LAUNCH_DATE":"2021-12-18","GP_ID":"213003015","CENTER_NAME":"EARTH","EPHEMERIS_TYPE":"0","TLE_LINE1":"1 50192U 21125AN  22262.12993851  .00002124  00000-0  15150-3 0  9994","RA_OF_ASC_NODE":"169.4212","OBJECT_TYPE":"PAYLOAD","ECCENTRICITY":"0.00019030","ARG_OF_PERICENTER":"50.4390","TLE_LINE2":"2 50192  53.2177 169.4212 0001903  50.4390 309.6770 15.08846103 45370","SEMIMAJOR_AXIS":"6917.862","MEAN_ANOMALY":"309.6770","REF_FRAME":"TEME","SITE":"AFWTR","TIME_SYSTEM":"UTC","MEAN_MOTION_DDOT":"0.0000000000000"},{"MEAN_MOTION_DDOT":"0.0000000000000","SITE":"AFWTR","TIME_SYSTEM":"UTC","TLE_LINE2":"2 50193  53.2173 167.8816 0001899  45.1874 314.9273 15.08839742 45470","SEMIMAJOR_AXIS":"6917.881","MEAN_ANOMALY":"314.9273","REF_FRAME":"TEME","ECCENTRICITY":"0.00018990","ARG_OF_PERICENTER":"45.1874","RA_OF_ASC_NODE":"167.8816","OBJECT_TYPE":"PAYLOAD","TLE_LINE1":"1 50193U 21125AP  22262.47218423  .00002519  00000-0  17631-3 0  9992","EPHEMERIS_TYPE":"0","CENTER_NAME":"EARTH","PERIAPSIS":"538.432","LAUNCH_DATE":"2021-12-18","GP_ID":"213001779","EPOCH":"2022-09-19T11:19:56.717472","BSTAR":"0.00017631000000","COUNTRY_CODE":"US","OBJECT_NAME":"STARLINK-3261","RCS_SIZE":"LARGE","ELEMENT_SET_NO":"999","NORAD_CAT_ID":"50193","APOAPSIS":"541.060","FILE":"3577889","INCLINATION":"53.2173","OBJECT_ID":"2021-125AP","MEAN_MOTION_DOT":"0.00002519","DECAY_DATE":null,"REV_AT_EPOCH":"4547","MEAN_MOTION":"15.08839742","PERIOD":"95.438","CLASSIFICATION_TYPE":"U","MEAN_ELEMENT_THEORY":"SGP4"},{"MEAN_MOTION_DDOT":"0.0000000000000","TIME_SYSTEM":"UTC","SITE":"AFWTR","REF_FRAME":"TEME","MEAN_ANOMALY":"302.4261","TLE_LINE2":"2 50194  53.2164 169.4325 0001803  57.6906 302.4261 15.08858613 45425","SEMIMAJOR_AXIS":"6917.823","ARG_OF_PERICENTER":"57.6906","ECCENTRICITY":"0.00018030","RA_OF_ASC_NODE":"169.4325","OBJECT_TYPE":"PAYLOAD","TLE_LINE1":"1 50194U 21125AQ  22262.12627758  .00013027  00000-0  83461-3 0  9990","EPHEMERIS_TYPE":"0","CENTER_NAME":"EARTH","LAUNCH_DATE":"2021-12-18","GP_ID":"213002029","PERIAPSIS":"538.441","EPOCH":"2022-09-19T03:01:50.382912","BSTAR":"0.00083461000000","COUNTRY_CODE":"US","ELEMENT_SET_NO":"999","RCS_SIZE":"LARGE","OBJECT_NAME":"STARLINK-3269","APOAPSIS":"540.936","NORAD_CAT_ID":"50194","INCLINATION":"53.2164","FILE":"3577889","OBJECT_ID":"2021-125AQ","MEAN_MOTION_DOT":"0.00013027","DECAY_DATE":null,"REV_AT_EPOCH":"4542","PERIOD":"95.436","MEAN_MOTION":"15.08858613","MEAN_ELEMENT_THEORY":"SGP4","CLASSIFICATION_TYPE":"U"},{"EPHEMERIS_TYPE":"0","TLE_LINE1":"1 50195U 21125AR  22262.46851269  .00003959  00000-0  26668-3 0  9993","EPOCH":"2022-09-19T11:14:39.496416","CENTER_NAME":"EARTH","GP_ID":"212978377","LAUNCH_DATE":"2021-12-18","PERIAPSIS":"538.547","MEAN_MOTION_DDOT":"0.0000000000000","ECCENTRICITY":"0.00017320","ARG_OF_PERICENTER":"65.2249","RA_OF_ASC_NODE":"167.8993","OBJECT_TYPE":"PAYLOAD","TIME_SYSTEM":"UTC","SITE":"AFWTR","REF_FRAME":"TEME","TLE_LINE2":"2 50195  53.2169 167.8993 0001732  65.2249 294.8923 15.08840013 44940","MEAN_ANOMALY":"294.8923","SEMIMAJOR_AXIS":"6917.880","MEAN_MOTION_DOT":"0.00003959","OBJECT_ID":"2021-125AR","PERIOD":"95.438","MEAN_MOTION":"15.08840013","CLASSIFICATION_TYPE":"U","MEAN_ELEMENT_THEORY":"SGP4","DECAY_DATE":null,"REV_AT_EPOCH":"4494","ELEMENT_SET_NO":"999","RCS_SIZE":"LARGE","OBJECT_NAME":"STARLINK-3266","BSTAR":"0.00026668000000","COUNTRY_CODE":"US","INCLINATION":"53.2169","FILE":"3577867","APOAPSIS":"540.944","NORAD_CAT_ID":"50195"},{"OBJECT_ID":"2021-125AS","MEAN_MOTION_DOT":"-0.00000325","REV_AT_EPOCH":"4542","DECAY_DATE":null,"CLASSIFICATION_TYPE":"U","MEAN_ELEMENT_THEORY":"SGP4","PERIOD":"95.438","MEAN_MOTION":"15.08833504","COUNTRY_CODE":"US","BSTAR":"-0.00000228310000","RCS_SIZE":"LARGE","OBJECT_NAME":"STARLINK-3263","ELEMENT_SET_NO":"999","APOAPSIS":"541.147","NORAD_CAT_ID":"50196","INCLINATION":"53.2186","FILE":"3577889","TLE_LINE1":"1 50196U 21125AS  22262.45009602 -.00000325  00000-0 -22831-5 0  9995","EPHEMERIS_TYPE":"0","GP_ID":"213003515","LAUNCH_DATE":"2021-12-18","PERIAPSIS":"538.384","CENTER_NAME":"EARTH","EPOCH":"2022-09-19T10:48:08.296128","MEAN_MOTION_DDOT":"0.0000000000000","REF_FRAME":"TEME","TLE_LINE2":"2 50196  53.2186 167.9912 0001997  54.8836 305.2343 15.08833504 45425","SEMIMAJOR_AXIS":"6917.900","MEAN_ANOMALY":"305.2343","TIME_SYSTEM":"UTC","SITE":"AFWTR","RA_OF_ASC_NODE":"167.9912","OBJECT_TYPE":"PAYLOAD","ARG_OF_PERICENTER":"54.8836","ECCENTRICITY":"0.00019970"}];
